     2              NAVIGATION DATA                         RINEX VERSION / TYPE
CCRINEXN V1.6.0 UX  CDDIS               01-MAY-23 23:31     PGM / RUN BY / DATE 
IGS BROADCAST EPHEMERIS FILE                                COMMENT             
    0.2515D-07  0.1490D-07 -0.1192D-06 -0.5960D-07          ION ALPHA           
    0.1290D+06  0.4915D+05 -0.2621D+06  0.1966D+06          ION BETA            
   -0.931322574615D-09-0.444089209850D-14   233472     2260 DELTA-UTC: A0,A1,T,W
    18                                                      LEAP SECONDS        
                                                            END OF HEADER       
10 23  4 30 21 59 44.0-0.350326299667D-04-0.159161572810D-11 0.000000000000D+00
    0.130000000000D+02 0.100937500000D+02 0.446732893933D-08 0.961145017856D+00
    0.720843672752D-06 0.846851698589D-02 0.463612377644D-05 0.515368641472D+04
    0.791840000000D+05 0.130385160446D-07-0.248455737394D+01 0.106170773506D-06
    0.978319421559D+00 0.300750000000D+03-0.242820183427D+01-0.828141638280D-08
    0.192865176466D-10 0.100000000000D+01 0.226000000000D+04 0.000000000000D+00
    0.200000000000D+01 0.000000000000D+00 0.232830643654D-08 0.130000000000D+02
    0.750180000000D+05 0.400000000000D+01 0.000000000000D+00 0.000000000000D+00
24 23  4 30 21 59 44.0-0.171798747033D-03-0.142108547152D-10 0.000000000000D+00
    0.200000000000D+02 0.484375000000D+01 0.469590988921D-08-0.292478389473D+01
    0.251457095146D-06 0.138322401326D-01 0.108629465103D-04 0.515365905571D+04
    0.791840000000D+05 0.819563865662D-07-0.475482919646D+00-0.137835741043D-06
    0.934251341924D+00 0.154062500000D+03 0.891117976241D+00-0.784425531615D-08
    0.197151069276D-09 0.100000000000D+01 0.226000000000D+04 0.000000000000D+00
    0.200000000000D+01 0.000000000000D+00 0.232830643654D-08 0.200000000000D+02
    0.720710000000D+05 0.400000000000D+01 0.000000000000D+00 0.000000000000D+00
25 23  4 30 21 59 44.0 0.439523253590D-03 0.272848410532D-11 0.000000000000D+00
    0.380000000000D+02 0.455625000000D+02 0.494592030315D-08 0.152330801930D+01
    0.223331153393D-05 0.111279762350D-01 0.507198274136D-05 0.515373774147D+04
    0.791840000000D+05-0.260770320892D-06 0.646963975206D+00-0.279396772385D-07
    0.953524063156D+00 0.276593750000D+03 0.104895462163D+01-0.846463830045D-08
    0.229652423088D-09 0.100000000000D+01 0.226000000000D+04 0.000000000000D+00
    0.200000000000D+01 0.000000000000D+00 0.558793544769D-08 0.380000000000D+02
    0.729190000000D+05 0.400000000000D+01 0.000000000000D+00 0.000000000000D+00
30 23  4 30 21 59 44.0-0.519683584571D-03 0.204636307899D-11 0.000000000000D+00
    0.120000000000D+02 0.246562500000D+02 0.484234456023D-08 0.231106009249D+01
    0.123120844364D-05 0.642445439007D-02 0.112298876047D-04 0.515360830307D+04
    0.791840000000D+05-0.763684511185D-07-0.378789271854D+00-0.447034835815D-07
    0.935856288868D+00 0.149593750000D+03-0.260008808010D+01-0.810676625078D-08
    0.199294015681D-09 0.100000000000D+01 0.226000000000D+04 0.000000000000D+00
    0.200000000000D+01 0.000000000000D+00 0.372529029846D-08 0.120000000000D+02
    0.735180000000D+05 0.400000000000D+01 0.000000000000D+00 0.000000000000D+00
 2 23  4 30 22  0  0.0-0.600818544626D-03 0.386535248253D-11 0.000000000000D+00
    0.280000000000D+02 0.127500000000D+02 0.438375402952D-08 0.995160692483D+00
    0.486150383949D-06 0.173853207380D-01 0.945664942265D-05 0.515953043556D+04
    0.792000000000D+05-0.150874257088D-06 0.267283422269D+01-0.379979610443D-06
    0.967575828720D+00 0.205843750000D+03-0.129141980809D+01-0.807390773924D-08
    0.118219210019D-09 0.100000000000D+01 0.226000000000D+04 0.000000000000D+00
    0.200000000000D+01 0.000000000000D+00-0.176951289177D-07 0.280000000000D+02
    0.720180000000D+05 0.400000000000D+01 0.000000000000D+00 0.000000000000D+00
 3 23  4 30 22  0  0.0-0.315984711051D-03 0.101181285572D-10 0.000000000000D+00
    0.140000000000D+02 0.837500000000D+01 0.438982571100D-08 0.191733641223D+01
    0.240281224251D-06 0.473298376892D-02 0.456348061562D-05 0.515367664146D+04
    0.792000000000D+05-0.119209289551D-06-0.248190289445D+01-0.117346644402D-06
    0.978578890562D+00 0.300531250000D+03 0.101107744892D+01-0.810998067039D-08
    0.107504477993D-09 0.100000000000D+01 0.226000000000D+04 0.000000000000D+00
    0.200000000000D+01 0.000000000000D+00 0.186264514923D-08 0.140000000000D+02
    0.721980000000D+05 0.400000000000D+01 0.000000000000D+00 0.000000000000D+00
 4 23  4 30 22  0  0.0 0.298931263387D-04 0.954969436862D-11 0.000000000000D+00
    0.420000000000D+02-0.733437500000D+02 0.438446834499D-08-0.150377982576D+01
   -0.387802720070D-05 0.235723925289D-02 0.820122659206D-05 0.515368159866D+04
    0.792000000000D+05-0.372529029846D-07-0.140062928327D+01-0.428408384323D-07
    0.962331461974D+00 0.221937500000D+03-0.297541570304D+01-0.799426156451D-08
   -0.344300055765D-09 0.100000000000D+01 0.226000000000D+04 0.000000000000D+00
    0.200000000000D+01 0.000000000000D+00-0.465661287308D-08 0.554000000000D+03
    0.720180000000D+05 0.400000000000D+01 0.000000000000D+00 0.000000000000D+00
 5 23  4 30 22  0  0.0-0.125434715301D-03-0.147792889038D-11 0.000000000000D+00
    0.860000000000D+02 0.202187500000D+02 0.477591322167D-08-0.610004182334D+00
    0.108778476715D-05 0.588445307221D-02 0.426732003689D-05 0.515365325546D+04
    0.792000000000D+05-0.106170773506D-06-0.252811966281D+01 0.726431608200D-07
    0.965635322016D+00 0.296812500000D+03 0.113632776379D+01-0.842535094969D-08
    0.907180644858D-10 0.100000000000D+01 0.226000000000D+04 0.000000000000D+00
    0.200000000000D+01 0.000000000000D+00-0.111758708954D-07 0.860000000000D+02
    0.727990000000D+05 0.400000000000D+01 0.000000000000D+00 0.000000000000D+00
 6 23  4 30 22  0  0.0 0.587985850871D-03 0.454747350886D-12 0.000000000000D+00
    0.260000000000D+02 0.387812500000D+02 0.387087552322D-08-0.303336547669D+01
    0.207871198654D-05 0.283003330696D-02 0.104047358036D-04 0.515365994453D+04
    0.792000000000D+05-0.298023223877D-07 0.276271743091D+01 0.689178705216D-07
    0.989318353583D+00 0.194875000000D+03-0.753688590407D+00-0.763817530352D-08
    0.200008331150D-09 0.100000000000D+01 0.226000000000D+04 0.000000000000D+00
    0.200000000000D+01 0.000000000000D+00 0.372529029846D-08 0.260000000000D+02
    0.720670000000D+05 0.400000000000D+01 0.000000000000D+00 0.000000000000D+00
 9 23  4 30 22  0  0.0-0.168806407601D-03 0.818545231596D-11 0.000000000000D+00
    0.100000000000D+02-0.739375000000D+02 0.462412118464D-08-0.619745072104D+00
   -0.387802720070D-05 0.234189257026D-02 0.781752169132D-05 0.515362913132D+04
    0.792000000000D+05-0.372529029846D-07-0.145713002779D+01 0.372529029846D-07
    0.955586938569D+00 0.224593750000D+03 0.195606509543D+01-0.820069873488D-08
   -0.351443210449D-09 0.100000000000D+01 0.226000000000D+04 0.000000000000D+00
    0.200000000000D+01 0.000000000000D+00 0.139698386192D-08 0.100000000000D+02
    0.738720000000D+05 0.400000000000D+01 0.000000000000D+00 0.000000000000D+00
10 23  4 30 22  0  0.0-0.350307673216D-04-0.159161572810D-11 0.000000000000D+00
    0.620000000000D+02 0.100937500000D+02 0.446732893933D-08 0.963479859981D+00
    0.720843672752D-06 0.846851640381D-02 0.463612377644D-05 0.515368641663D+04
    0.792000000000D+05 0.130385160446D-07-0.248455750267D+01 0.106170773506D-06
    0.978319417171D+00 0.300750000000D+03-0.242820297681D+01-0.828141638280D-08
    0.192865176466D-10 0.100000000000D+01 0.226000000000D+04 0.000000000000D+00
    0.200000000000D+01 0.000000000000D+00 0.232830643654D-08 0.620000000000D+02
    0.720180000000D+05 0.400000000000D+01 0.000000000000D+00 0.000000000000D+00
11 23  4 30 22  0  0.0-0.180578790605D-03-0.133013600134D-10 0.000000000000D+00
    0.158000000000D+03 0.370000000000D+02 0.438553981819D-08-0.164163649339D+01
    0.209547579288D-05 0.781146576628D-03 0.100396573543D-04 0.515374217987D+04
    0.792000000000D+05 0.819563865662D-07 0.280461040445D+01 0.279396772385D-07
    0.965503044963D+00 0.188343750000D+03-0.281079799348D+01-0.799604735318D-08
    0.198579700213D-09 0.100000000000D+01 0.226000000000D+04 0.000000000000D+00
    0.200000000000D+01 0.000000000000D+00-0.884756445885D-08 0.926000000000D+03
    0.720680000000D+05 0.400000000000D+01 0.000000000000D+00 0.000000000000D+00
12 23  4 30 22  0  0.0-0.370407942682D-03-0.466116034659D-11 0.000000000000D+00
    0.290000000000D+02 0.374687500000D+02 0.464269338681D-08 0.166961350551D+01
    0.184029340744D-05 0.886887160596D-02 0.490434467792D-05 0.515360924530D+04
    0.792000000000D+05-0.558793544769D-07 0.728976142885D+00-0.203028321266D-06
    0.965786925679D+00 0.286281250000D+03 0.136635277474D+01-0.822212819893D-08
    0.231795369493D-09 0.100000000000D+01 0.226000000000D+04 0.000000000000D+00
    0.200000000000D+01 0.000000000000D+00-0.125728547573D-07 0.290000000000D+02
    0.720690000000D+05 0.400000000000D+01 0.000000000000D+00 0.000000000000D+00
13 23  4 30 22  0  0.0 0.513422302902D-03 0.545696821064D-11 0.000000000000D+00
    0.180000000000D+02-0.804062500000D+02 0.418803159118D-08-0.141632214302D+01
   -0.418163836002D-05 0.689565530047D-02 0.865012407303D-05 0.515367169380D+04
    0.792000000000D+05 0.244006514549D-06-0.129722007931D+01 0.372529029846D-08
    0.969404960545D+00 0.217781250000D+03 0.910027061388D+00-0.788175687824D-08
   -0.417160233541D-09 0.100000000000D+01 0.226000000000D+04 0.000000000000D+00
    0.200000000000D+01 0.000000000000D+00-0.111758708954D-07 0.180000000000D+02
    0.787680000000D+05 0.400000000000D+01 0.000000000000D+00 0.000000000000D+00
